CCSDS_OMM_VERS,COMMENT,CREATION_DATE,ORIGINATOR,OBJECT_NAME,OBJECT_ID,CENTER_NAME,REF_FRAME,TIME_SYSTEM,MEAN_ELEMENT_THEORY,EPOCH,MEAN_MOTION,ECCENTRICITY,INCLINATION,RA_OF_ASC_NODE,ARG_OF_PERICENTER,MEAN_ANOMALY,EPHEMERIS_TYPE,CLASSIFICATION_TYPE,NORAD_CAT_ID,ELEMENT_SET_NO,REV_AT_EPOCH,BSTAR,MEAN_MOTION_DOT,MEAN_MOTION_DDOT,SEMIMAJOR_AXIS,PERIOD,APOAPSIS,PERIAPSIS,OBJECT_TYPE,RCS_SIZE,COUNTRY_CODE,LAUNCH_DATE,SITE,DECAY_DATE,FILE,GP_ID,TLE_LINE0,TLE_LINE1,TLE_LINE2
"2.0","GENERATED VIA SPACE-TRACK.ORG API","2020-12-16T22:36:09","18 SPCS","BRO-1","2019-054A","EARTH","TEME","UTC","SGP4","2020-12-16T15:11:43.891296","15.08664383","0.00103990","45.0200","44.3177","110.3236","23.4189","0","U","44495","999","7328","0.00002370400000","0.00000129","0.0000000000000","6918.417","95.448","547.476","533.087","PAYLOAD","SMALL","FR","2019-08-19","RLLC","","2904032","167904879","0 BRO-1","1 44495U 19054A   20351.63314689  .00000129  00000-0  23704-4 0  9998","2 44495  45.0200  44.3177 0010399 110.3236  23.4189 15.08664383 73284"
"2.0","GENERATED VIA SPACE-TRACK.ORG API","2020-12-17T06:36:09","18 SPCS","BRO-1","2019-054A","EARTH","TEME","UTC","SGP4","2020-12-17T03:26:12.157728","15.08664875","0.00104010","45.0199","41.6128","113.3316","273.4515","0","U","44495","999","7336","0.00002433600000","0.00000139","0.0000000000000","6918.415","95.448","547.476","533.084","PAYLOAD","SMALL","FR","2019-08-19","RLLC","","2904240","167930607","0 BRO-1","1 44495U 19054A   20352.14319627  .00000139  00000-0  24336-4 0  9995","2 44495  45.0199  41.6128 0010401 113.3316 273.4515 15.08664875 73368"
"2.0","GENERATED VIA SPACE-TRACK.ORG API","2020-12-17T14:56:10","18 SPCS","BRO-1","2019-054A","EARTH","TEME","UTC","SGP4","2020-12-17T09:44:24.608832","15.08664223","0.00103840","45.0201","40.2210","114.5607","260.1627","0","U","44495","999","7340","0.00001514200000","-0.00000008","0.0000000000000","6918.417","95.448","547.466","533.098","PAYLOAD","SMALL","FR","2019-08-19","RLLC","","2904463","167935901","0 BRO-1","1 44495U 19054A   20352.40584038 -.00000008  00000-0  15142-4 0  9995","2 44495  45.0201  40.2210 0010384 114.5607 260.1627 15.08664223 73404"
"2.0","GENERATED VIA SPACE-TRACK.ORG API","2020-12-17T23:07:23","18 SPCS","BRO-1","2019-054A","EARTH","TEME","UTC","SGP4","2020-12-17T13:31:05.542176","15.08664539","0.00104660","45.0197","39.3869","115.6806","34.8962","0","U","44495","999","7342","0.00001793600000","0.00000037","0.0000000000000","6918.416","95.448","547.522","533.040","PAYLOAD","SMALL","FR","2019-08-19","RLLC","","2904594","167958059","0 BRO-1","1 44495U 19054A   20352.56325859  .00000037  00000-0  17936-4 0  9990","2 44495  45.0197  39.3869 0010466 115.6806  34.8962 15.08664539 73421"
"2.0","GENERATED VIA SPACE-TRACK.ORG API","2020-12-17T23:16:10","18 SPCS","BRO-1","2019-054A","EARTH","TEME","UTC","SGP4","2020-12-17T21:32:58.885728","15.08664510","0.00104380","45.0198","37.6127","117.7636","52.2136","0","U","44495","999","7347","0.00001452400000","-0.00000017","0.0000000000000","6918.416","95.448","547.503","533.060","PAYLOAD","SMALL","FR","2019-08-19","RLLC","","2904659","167962239","0 BRO-1","1 44495U 19054A   20352.89790377 -.00000017  00000-0  14524-4 0  9996","2 44495  45.0198  37.6127 0010438 117.7636  52.2136 15.08664510 73474"
"2.0","GENERATED VIA SPACE-TRACK.ORG API","2020-12-18T06:26:10","18 SPCS","BRO-1","2019-054A","EARTH","TEME","UTC","SGP4","2020-12-18T01:57:47.041344","15.08664978","0.00104530","45.0199","36.6371","118.6035","331.1534","0","U","44495","999","7350","0.00001848400000","0.00000046","0.0000000000000","6918.415","95.448","547.512","533.048","PAYLOAD","SMALL","FR","2019-08-19","RLLC","","2904858","167987511","0 BRO-1","1 44495U 19054A   20353.08179446  .00000046  00000-0  18484-4 0  9996","2 44495  45.0199  36.6371 0010453 118.6035 331.1534 15.08664978 73508"
"2.0","GENERATED VIA SPACE-TRACK.ORG API","2020-12-18T14:46:10","18 SPCS","BRO-1","2019-054A","EARTH","TEME","UTC","SGP4","2020-12-18T11:41:56.777280","15.08666187","0.00104810","45.0196","34.4876","120.8029","14.4973","0","U","44495","999","7356","0.00002926600000","0.00000218","0.0000000000000","6918.411","95.448","547.527","533.025","PAYLOAD","SMALL","FR","2019-08-19","RLLC","","2905087","167992333","0 BRO-1","1 44495U 19054A   20353.48746270  .00000218  00000-0  29266-4 0  9996","2 44495  45.0196  34.4876 0010481 120.8029  14.4973 15.08666187 73568"
"2.0","GENERATED VIA SPACE-TRACK.ORG API","2020-12-18T22:36:10","18 SPCS","BRO-1","2019-054A","EARTH","TEME","UTC","SGP4","2020-12-18T13:22:04.811232","15.08666540","0.00104940","45.0195","34.1196","121.1005","32.2619","0","U","44495","999","7357","0.00003349000000","0.00000285","0.0000000000000","6918.410","95.448","547.535","533.015","PAYLOAD","SMALL","FR","2019-08-19","RLLC","","2905325","168019447","0 BRO-1","1 44495U 19054A   20353.55700013  .00000285  00000-0  33490-4 0  9997","2 44495  45.0195  34.1196 0010494 121.1005  32.2619 15.08666540 73570"
"2.0","GENERATED VIA SPACE-TRACK.ORG API","2020-12-19T07:06:10","18 SPCS","BRO-1","2019-054A","EARTH","TEME","UTC","SGP4","2020-12-19T04:47:27.385728","15.08668400","0.00105510","45.0193","30.7122","125.4981","281.6894","0","U","44495","999","7367","0.00004578700000","0.00000481","0.0000000000000","6918.404","95.448","547.569","532.970","PAYLOAD","SMALL","FR","2019-08-19","RLLC","","2905624","168046497","0 BRO-1","1 44495U 19054A   20354.19962252  .00000481  00000-0  45787-4 0  9993","2 44495  45.0193  30.7122 0010551 125.4981 281.6894 15.08668400 73676"
"2.0","GENERATED VIA SPACE-TRACK.ORG API","2020-12-19T15:06:09","18 SPCS","BRO-1","2019-054A","EARTH","TEME","UTC","SGP4","2020-12-19T11:33:09.248256","15.08669337","0.00105520","45.0197","29.2201","127.5197","11.4084","0","U","44495","999","7371","0.00005303500000","0.00000596","0.0000000000000","6918.402","95.448","547.567","532.966","PAYLOAD","SMALL","FR","2019-08-19","RLLC","","2905850","168051482","0 BRO-1","1 44495U 19054A   20354.48135704  .00000596  00000-0  53035-4 0  9991","2 44495  45.0197  29.2201 0010552 127.5197  11.4084 15.08669337 73719"
"2.0","GENERATED VIA SPACE-TRACK.ORG API","2020-12-19T20:03:32","18 SPCS","BRO-1","2019-054A","EARTH","TEME","UTC","SGP4","2020-12-19T11:33:09.248256","15.08669337","0.00105520","45.0197","29.2201","127.5197","11.4084","0","U","44495","999","7371","0.00005303500000","0.00000596","0.0000000000000","6918.402","95.448","547.567","532.966","PAYLOAD","SMALL","FR","2019-08-19","RLLC","","2905959","168073272","0 BRO-1","1 44495U 19054A   20354.48135704  .00000596  00000-0  53035-4 0  9991","2 44495  45.0197  29.2201 0010552 127.5197  11.4084 15.08669337 73719"
"2.0","GENERATED VIA SPACE-TRACK.ORG API","2020-12-19T22:56:09","18 SPCS","BRO-1","2019-054A","EARTH","TEME","UTC","SGP4","2020-12-19T19:38:09.703104","15.08670107","0.00105550","45.0197","27.4352","129.4445","40.6648","0","U","44495","999","7376","0.00005586000000","0.00000642","0.0000000000000","6918.399","95.448","547.567","532.962","PAYLOAD","SMALL","FR","2019-08-19","RLLC","","2906068","168078122","0 BRO-1","1 44495U 19054A   20354.81816786  .00000642  00000-0  55860-4 0  9994","2 44495  45.0197  27.4352 0010555 129.4445  40.6648 15.08670107 73768"
"2.0","GENERATED VIA SPACE-TRACK.ORG API","2020-12-20T02:37:23","18 SPCS","BRO-1","2019-054A","EARTH","TEME","UTC","SGP4","2020-12-19T19:38:09.703104","15.08670107","0.00105550","45.0197","27.4352","129.4445","40.6648","0","U","44495","999","7376","0.00005586000000","0.00000642","0.0000000000000","6918.399","95.448","547.567","532.962","PAYLOAD","SMALL","FR","2019-08-19","RLLC","","2906183","168100735","0 BRO-1","1 44495U 19054A   20354.81816786  .00000642  00000-0  55860-4 0  9994","2 44495  45.0197  27.4352 0010555 129.4445  40.6648 15.08670107 73768"
"2.0","GENERATED VIA SPACE-TRACK.ORG API","2020-12-20T07:06:09","18 SPCS","BRO-1","2019-054A","EARTH","TEME","UTC","SGP4","2020-12-20T03:17:04.926048","15.08670880","0.00107420","45.0197","25.7458","132.8496","329.9509","0","U","44495","999","7381","0.00005887600000","0.00000690","0.0000000000000","6918.397","95.448","547.694","532.830","PAYLOAD","SMALL","FR","2019-08-19","RLLC","","2906289","168104297","0 BRO-1","1 44495U 19054A   20355.13686257  .00000690  00000-0  58876-4 0  9991","2 44495  45.0197  25.7458 0010742 132.8496 329.9509 15.08670880 73811"
"2.0","GENERATED VIA SPACE-TRACK.ORG API","2020-12-20T14:56:09","18 SPCS","BRO-1","2019-054A","EARTH","TEME","UTC","SGP4","2020-12-20T11:23:41.157024","15.08671380","0.00107710","45.0201","23.9543","134.9359","5.0731","0","U","44495","999","7386","0.00005894400000","0.00000691","0.0000000000000","6918.395","95.448","547.712","532.809","PAYLOAD","SMALL","FR","2019-08-19","RLLC","","2906421","168107238","0 BRO-1","1 44495U 19054A   20355.47478191  .00000691  00000-0  58944-4 0  9991","2 44495  45.0201  23.9543 0010771 134.9359   5.0731 15.08671380 73865"
"2.0","GENERATED VIA SPACE-TRACK.ORG API","2020-12-20T20:46:18","18 SPCS","BRO-1","2019-054A","EARTH","TEME","UTC","SGP4","2020-12-20T11:23:41.157024","15.08671380","0.00107710","45.0201","23.9543","134.9359","5.0731","0","U","44495","999","7386","0.00005894400000","0.00000691","0.0000000000000","6918.395","95.448","547.712","532.809","PAYLOAD","SMALL","FR","2019-08-19","RLLC","","2906543","168130038","0 BRO-1","1 44495U 19054A   20355.47478191  .00000691  00000-0  58944-4 0  9991","2 44495  45.0201  23.9543 0010771 134.9359   5.0731 15.08671380 73865"
"2.0","GENERATED VIA SPACE-TRACK.ORG API","2020-12-20T23:06:09","18 SPCS","BRO-1","2019-054A","EARTH","TEME","UTC","SGP4","2020-12-20T19:28:20.526816","15.08671909","0.00107320","45.0205","22.1700","136.5385","33.3258","0","U","44495","999","7391","0.00005746400000","0.00000667","0.0000000000000","6918.394","95.448","547.684","532.834","PAYLOAD","SMALL","FR","2019-08-19","RLLC","","2906668","168134383","0 BRO-1","1 44495U 19054A   20355.81134869  .00000667  00000-0  57464-4 0  9999","2 44495  45.0205  22.1700 0010732 136.5385  33.3258 15.08671909 73910"
